{
  "type": "FeatureCollection",
  "features": [
    {
      "type": "Feature",
      "properties": {
        "norad_id": 35015,
        "name": "COSMOS 2251 DEB",
        "group": "cosmos-2251-debris",
        "lat": -57.92144287187818,
        "lon": -179.93753388276036,
        "alt_km": 779.160884973021,
        "timestamp": "2025-12-27T06:41:31.321559+00:00",
        "meta_object_name": "COSMOS 2251 DEB",
        "meta_object_id": "1993-036AGC",
        "meta_epoch": "2025-12-26T21:05:28.048704",
        "meta_mean_motion": 14.46949541,
        "meta_eccentricity": 0.00746092,
        "meta_inclination": 73.9463,
        "meta_ra_of_asc_node": 208.1629,
        "meta_arg_of_pericenter": 73.2368,
        "meta_mean_anomaly": 302.6187,
        "meta_ephemeris_type": 0,
        "meta_classification_type": "U",
        "meta_norad_cat_id": 35015,
        "meta_element_set_no": 999,
        "meta_rev_at_epoch": 65645,
        "meta_bstar": 0.00070884813,
        "meta_mean_motion_dot": 2.639e-05,
        "meta_mean_motion_ddot": 0,
        "tle_line1": "1 35015U 93036AGC 25360.87879686  .00002639  00000+0  70885-3 0  9990",
        "tle_line2": "2 35015  73.9463 208.1629 0074609  73.2368 302.6187 14.46949541656451"
      },
      "geometry": {
        "type": "Point",
        "coordinates": [
          -179.93753388276036,
          -57.92144287187818
        ]
      }
    },
    {
      "type": "Feature",
      "properties": {
        "norad_id": 35016,
        "name": "COSMOS 2251 DEB",
        "group": "cosmos-2251-debris",
        "lat": 56.72100773192941,
        "lon": -66.35208411127945,
        "alt_km": 810.2769715125178,
        "timestamp": "2025-12-27T06:41:31.321569+00:00",
        "meta_object_name": "COSMOS 2251 DEB",
        "meta_object_id": "1993-036AGD",
        "meta_epoch": "2025-12-21T05:33:15.838848",
        "meta_mean_motion": 14.35075882,
        "meta_eccentricity": 0.01140745,
        "meta_inclination": 73.9302,
        "meta_ra_of_asc_node": 278.7521,
        "meta_arg_of_pericenter": 193.9283,
        "meta_mean_anomaly": 317.5381,
        "meta_ephemeris_type": 0,
        "meta_classification_type": "U",
        "meta_norad_cat_id": 35016,
        "meta_element_set_no": 999,
        "meta_rev_at_epoch": 86904,
        "meta_bstar": 0.00026149228,
        "meta_mean_motion_dot": 7.75e-06,
        "meta_mean_motion_ddot": 0,
        "tle_line1": "1 35016U 93036AGD 25355.23143332  .00000775  00000+0  26149-3 0  9990",
        "tle_line2": "2 35016  73.9302 278.7521 0114074 193.9283 317.5381 14.35075882869043"
      },
      "geometry": {
        "type": "Point",
        "coordinates": [
          -66.35208411127945,
          56.72100773192941
        ]
      }
    },
    {
      "type": "Feature",
      "properties": {
        "norad_id": 35018,
        "name": "COSMOS 2251 DEB",
        "group": "cosmos-2251-debris",
        "lat": -24.977478909651662,
        "lon": -86.2685419336519,
        "alt_km": 1226.3014182881907,
        "timestamp": "2025-12-27T06:41:31.321579+00:00",
        "meta_object_name": "COSMOS 2251 DEB",
        "meta_object_id": "1993-036AGF",
        "meta_epoch": "2025-12-26T22:38:59.059968",
        "meta_mean_motion": 13.67145257,
        "meta_eccentricity": 0.03491573,
        "meta_inclination": 73.9765,
        "meta_ra_of_asc_node": 86.5903,
        "meta_arg_of_pericenter": 352.7011,
        "meta_mean_anomaly": 6.909,
        "meta_ephemeris_type": 0,
        "meta_classification_type": "U",
        "meta_norad_cat_id": 35018,
        "meta_element_set_no": 999,
        "meta_rev_at_epoch": 83380,
        "meta_bstar": 0.0010289953,
        "meta_mean_motion_dot": 1.292e-05,
        "meta_mean_motion_ddot": 0,
        "tle_line1": "1 35018U 93036AGF 25360.94373912  .00001292  00000+0  10290-2 0  9999",
        "tle_line2": "2 35018  73.9765  86.5903 0349157 352.7011   6.9090 13.67145257833802"
      },
      "geometry": {
        "type": "Point",
        "coordinates": [
          -86.2685419336519,
          -24.977478909651662
        ]
      }
    },
    {
      "type": "Feature",
      "properties": {
        "norad_id": 35020,
        "name": "COSMOS 2251 DEB",
        "group": "cosmos-2251-debris",
        "lat": 12.651536394701836,
        "lon": -12.589469192493487,
        "alt_km": 711.8165106160304,
        "timestamp": "2025-12-27T06:41:31.321590+00:00",
        "meta_object_name": "COSMOS 2251 DEB",
        "meta_object_id": "1993-036AGH",
        "meta_epoch": "2025-12-26T21:43:00.431040",
        "meta_mean_motion": 14.62827965,
        "meta_eccentricity": 0.00913225,
        "meta_inclination": 74.0447,
        "meta_ra_of_asc_node": 171.8088,
        "meta_arg_of_pericenter": 282.6602,
        "meta_mean_anomaly": 76.4366,
        "meta_ephemeris_type": 0,
        "meta_classification_type": "U",
        "meta_norad_cat_id": 35020,
        "meta_element_set_no": 999,
        "meta_rev_at_epoch": 88445,
        "meta_bstar": 0.00019260729,
        "meta_mean_motion_dot": 1.01e-05,
        "meta_mean_motion_ddot": 0,
        "tle_line1": "1 35020U 93036AGH 25360.90486610  .00001010  00000+0  19261-3 0  9994",
        "tle_line2": "2 35020  74.0447 171.8088 0091322 282.6602  76.4366 14.62827965884455"
      },
      "geometry": {
        "type": "Point",
        "coordinates": [
          -12.589469192493487,
          12.651536394701836
        ]
      }
    },
    {
      "type": "Feature",
      "properties": {
        "norad_id": 35022,
        "name": "COSMOS 2251 DEB",
        "group": "cosmos-2251-debris",
        "lat": 58.793303488436116,
        "lon": 85.91168522144109,
        "alt_km": 652.4177858952207,
        "timestamp": "2025-12-27T06:41:31.321600+00:00",
        "meta_object_name": "COSMOS 2251 DEB",
        "meta_object_id": "1993-036AGK",
        "meta_epoch": "2025-12-25T13:04:16.912416",
        "meta_mean_motion": 14.60885818,
        "meta_eccentricity": 0.0046189,
        "meta_inclination": 74.0261,
        "meta_ra_of_asc_node": 297.4455,
        "meta_arg_of_pericenter": 133.747,
        "meta_mean_anomaly": 226.7535,
        "meta_ephemeris_type": 0,
        "meta_classification_type": "U",
        "meta_norad_cat_id": 35022,
        "meta_element_set_no": 999,
        "meta_rev_at_epoch": 59330,
        "meta_bstar": 0.00049139,
        "meta_mean_motion_dot": 2.411e-05,
        "meta_mean_motion_ddot": 0,
        "tle_line1": "1 35022U 93036AGK 25359.54464019  .00002411  00000+0  49139-3 0  9996",
        "tle_line2": "2 35022  74.0261 297.4455 0046189 133.7470 226.7535 14.60885818593302"
      },
      "geometry": {
        "type": "Point",
        "coordinates": [
          85.91168522144109,
          58.793303488436116
        ]
      }
    },
    {
      "type": "Feature",
      "properties": {
        "norad_id": 35023,
        "name": "COSMOS 2251 DEB",
        "group": "cosmos-2251-debris",
        "lat": -61.644812366014406,
        "lon": 151.22453978331197,
        "alt_km": 568.3392719062313,
        "timestamp": "2025-12-27T06:41:31.321610+00:00",
        "meta_object_name": "COSMOS 2251 DEB",
        "meta_object_id": "1993-036AGL",
        "meta_epoch": "2025-12-26T15:15:20.415744",
        "meta_mean_motion": 14.95526509,
        "meta_eccentricity": 0.0033423,
        "meta_inclination": 74.0371,
        "meta_ra_of_asc_node": 184.5532,
        "meta_arg_of_pericenter": 260.5788,
        "meta_mean_anomaly": 171.6189,
        "meta_ephemeris_type": 0,
        "meta_classification_type": "U",
        "meta_norad_cat_id": 35023,
        "meta_element_set_no": 999,
        "meta_rev_at_epoch": 88487,
        "meta_bstar": 0.0016022,
        "meta_mean_motion_dot": 0.00017965,
        "meta_mean_motion_ddot": 0,
        "tle_line1": "1 35023U 93036AGL 25360.63565296  .00017965  00000+0  16022-2 0  9992",
        "tle_line2": "2 35023  74.0371 184.5532 0033423 260.5788 171.6189 14.95526509884870"
      },
      "geometry": {
        "type": "Point",
        "coordinates": [
          151.22453978331197,
          -61.644812366014406
        ]
      }
    },
    {
      "type": "Feature",
      "properties": {
        "norad_id": 35025,
        "name": "COSMOS 2251 DEB",
        "group": "cosmos-2251-debris",
        "lat": -73.7644036984195,
        "lon": -63.908285136010235,
        "alt_km": 610.5216493262405,
        "timestamp": "2025-12-27T06:41:31.321620+00:00",
        "meta_object_name": "COSMOS 2251 DEB",
        "meta_object_id": "1993-036AGN",
        "meta_epoch": "2025-12-25T12:43:05.392128",
        "meta_mean_motion": 14.7277334,
        "meta_eccentricity": 0.0085734,
        "meta_inclination": 73.9378,
        "meta_ra_of_asc_node": 37.8677,
        "meta_arg_of_pericenter": 308.0127,
        "meta_mean_anomaly": 51.3326,
        "meta_ephemeris_type": 0,
        "meta_classification_type": "U",
        "meta_norad_cat_id": 35025,
        "meta_element_set_no": 999,
        "meta_rev_at_epoch": 88831,
        "meta_bstar": 0.00045426,
        "meta_mean_motion_dot": 3.041e-05,
        "meta_mean_motion_ddot": 0,
        "tle_line1": "1 35025U 93036AGN 25359.52992352  .00003041  00000+0  45426-3 0  9998",
        "tle_line2": "2 35025  73.9378  37.8677 0085734 308.0127  51.3326 14.72773340888316"
      },
      "geometry": {
        "type": "Point",
        "coordinates": [
          -63.908285136010235,
          -73.7644036984195
        ]
      }
    }
  ]
}